[{"OBJECT_NAME":"STARLINK-1973","OBJECT_ID":"2021-012J","EPOCH":"2026-03-09T06:36:53.618112","MEAN_MOTION":15.30222617,"ECCENTRICITY":0.00014478,"INCLINATION":53.1604,"RA_OF_ASC_NODE":66.9145,"ARG_OF_PERICENTER":99.206,"MEAN_ANOMALY":260.9105,"EPHEMERIS_TYPE":0,"CLASSIFICATION_TYPE":"U","NORAD_CAT_ID":47628,"ELEMENT_SET_NO":999,"REV_AT_EPOCH":28002,"BSTAR":0.00043146016,"MEAN_MOTION_DOT":0.0001245,"MEAN_MOTION_DDOT":0},{"OBJECT_NAME":"OBJECT Y","OBJECT_ID":"2023-085Y","EPOCH":"2026-03-09T22:38:54.992256","MEAN_MOTION":15.32500153,"ECCENTRICITY":0.00063298,"INCLINATION":97.4849,"RA_OF_ASC_NODE":180.8653,"ARG_OF_PERICENTER":67.4431,"MEAN_ANOMALY":292.748,"EPHEMERIS_TYPE":0,"CLASSIFICATION_TYPE":"U","NORAD_CAT_ID":57026,"ELEMENT_SET_NO":999,"REV_AT_EPOCH":15160,"BSTAR":0.00065512761,"MEAN_MOTION_DOT":0.00020524,"MEAN_MOTION_DDOT":0}]
